[{"OBJECT_NAME":"STARLINK-5576","OBJECT_ID":"2023-013BD","EPOCH":"2026-03-08T16:42:38.652480","MEAN_MOTION":15.02539135,"ECCENTRICITY":0.00012251,"INCLINATION":43.0045,"RA_OF_ASC_NODE":318.4067,"ARG_OF_PERICENTER":265.3874,"MEAN_ANOMALY":94.6829,"EPHEMERIS_TYPE":0,"CLASSIFICATION_TYPE":"U","NORAD_CAT_ID":55382,"ELEMENT_SET_NO":999,"REV_AT_EPOCH":17141,"BSTAR":5.6539268e-5,"MEAN_MOTION_DOT":5.6e-6,"MEAN_MOTION_DDOT":0},{"OBJECT_NAME":"FENGYUN 1C DEB","OBJECT_ID":"1999-025UA","EPOCH":"2026-03-09T18:54:40.789440","MEAN_MOTION":14.60797271,"ECCENTRICITY":0.02036625,"INCLINATION":98.3228,"RA_OF_ASC_NODE":143.6795,"ARG_OF_PERICENTER":316.7608,"MEAN_ANOMALY":169.6597,"EPHEMERIS_TYPE":0,"CLASSIFICATION_TYPE":"U","NORAD_CAT_ID":30169,"ELEMENT_SET_NO":999,"REV_AT_EPOCH":98993,"BSTAR":0.0016852515,"MEAN_MOTION_DOT":0.00011,"MEAN_MOTION_DDOT":0}]
